{
  "norad_id": 39427,
  "name": "TRITON-1",
  "history": [
    {
      "epoch": "2026-03-28T23:47:18.275136Z",
      "apogee_km": 689.3885560975414,
      "perigee_km": 561.0609165821361,
      "latitude_deg": -6.808397184246742e-06,
      "longitude_deg": 176.40546329504147,
      "height_km": 673.1876274720137,
      "semi_major_axis_km": 7003.361736339838,
      "eccentricity": 0.00916186,
      "inclination_deg": 97.8285,
      "raan_deg": 359.6353,
      "arg_perigee_deg": 134.9371,
      "mean_anomaly_deg": 225.9321,
      "mean_motion_rev_day": 14.81299661
    },
    {
      "epoch": "2026-03-29T04:39:07.254144Z",
      "apogee_km": 689.392176258104,
      "perigee_km": 561.0555880922448,
      "latitude_deg": -5.1317360036698885e-06,
      "longitude_deg": 103.44974278946606,
      "height_km": 672.6641051514421,
      "semi_major_axis_km": 7003.360882175174,
      "eccentricity": 0.0091625,
      "inclination_deg": 97.8286,
      "raan_deg": 359.8334,
      "arg_perigee_deg": 134.2875,
      "mean_anomaly_deg": 226.5901,
      "mean_motion_rev_day": 14.81299932
    },
    {
      "epoch": "2026-03-30T04:58:11.908128Z",
      "apogee_km": 689.3496972103449,
      "perigee_km": 561.0527430207594,
      "latitude_deg": 5.902395501738979e-05,
      "longitude_deg": 98.67173995856906,
      "height_km": 669.9257304069606,
      "semi_major_axis_km": 7003.338220115552,
      "eccentricity": 0.0091597,
      "inclination_deg": 97.8283,
      "raan_deg": 0.8235,
      "arg_perigee_deg": 131.052,
      "mean_anomaly_deg": 229.8655,
      "mean_motion_rev_day": 14.81307122
    }
  ]
}